ONEWEB-0197             
1 48236U 21031AC  26061.73763990  .00000076  00000+0  16985-3 0  9993
2 48236  87.8997 310.9272 0001604  68.8307 291.2994 13.14501838234201
ONEWEB-0194             
1 48237U 21031AD  26061.71716222 -.00000207  00000+0 -59376-3 0  9997
2 48237  87.9002 310.9485 0001480  85.0105 275.1193 13.14501954234374
ONEWEB-0193             
1 48238U 21031AE  26061.73301868  .00000038  00000+0  69057-4 0  9994
2 48238  87.8999 310.9375 0001306  90.2436 269.8843 13.14502399234320
ONEWEB-0191             
1 48239U 21031AF  26061.74412026  .00000152  00000+0  37431-3 0  9992
2 48239  87.9001 310.9306 0001591  78.4625 281.6683 13.14501632234181
ONEWEB-0195             
1 48240U 21031AG  26061.72112612 -.00000189  00000+0 -54315-3 0  9992
2 48240  87.9000 310.9320 0002020  85.0623 275.0737 13.14502193234166
ONEWEB-0201             
1 48241U 21031AH  26061.70937148 -.00000090  00000+0 -27717-3 0  9997
2 48241  87.8992 310.9635 0001896  73.2016 286.9322 13.14502790234399
ONEWEB-0207             
1 48242U 21031AJ  26061.68942567  .00000117  00000+0  28002-3 0  9992
2 48242  87.9003 310.9387 0001784  71.1771 288.9552 13.14502855234309
ONEWEB-0208             
1 48243U 21031AK  26061.74729130  .00000263  00000+0  67604-3 0  9992
2 48243  87.8999 310.9398 0001899  84.7888 275.3459 13.14501745234326
ONEWEB-0200             
1 48244U 21031AL  26061.71081566 -.00000165  00000+0 -47922-3 0  9998
2 48244  87.9000 310.9358 0001794  79.8583 280.2749 13.14501666234248
ONEWEB-0217             
1 48245U 21031AM  26061.72667792 -.00000036  00000+0 -13155-3 0  9999
2 48245  87.9001 310.9323 0001988  85.1164 275.0192 13.14502311234198
ONEWEB-0211             
1 48767U 21045A   26061.68625776  .00000133  00000+0  31621-3 0  9998
2 48767  87.8951 280.3701 0001934  98.4570 261.6780 13.16144122230430
ONEWEB-0223             
1 48768U 21045B   26061.63694515 -.00000043  00000+0 -14821-3 0  9996
2 48768  87.8957 280.4599 0001747 101.9383 258.1943 13.15547275230399
ONEWEB-0230             
1 48769U 21045C   26061.60842579  .00000070  00000+0  15312-3 0  9993
2 48769  87.8944 280.4891 0001478  84.2406 275.8893 13.15547118230656
ONEWEB-0237             
1 48770U 21045D   26061.67338747  .00000195  00000+0  48410-3 0  9992
2 48770  87.8945 280.4779 0001518  97.5295 262.6007 13.15546786230383
ONEWEB-0235             
1 48771U 21045E   26061.64803531  .00000025  00000+0  32251-4 0  9997
2 48771  87.8955 280.4583 0001676 104.0932 256.0385 13.15547544230373
ONEWEB-0242             
1 48772U 21045F   26061.64169536 -.00000020  00000+0 -88208-4 0  9998
2 48772  87.8953 280.4549 0001471  92.8281 267.3018 13.15547374230412
ONEWEB-0241             
1 48773U 21045G   26061.62902345 -.00000018  00000+0 -81951-4 0  9995
2 48773  87.8948 280.4879 0001852  97.7808 262.3533 13.15547179230325
