[{"OBJECT_NAME":"ONEWEB-0197","OBJECT_ID":"2021-031AC","EPOCH":"2026-03-02T17:42:12.087360","MEAN_MOTION":13.14501838,"ECCENTRICITY":0.0001604,"INCLINATION":87.8997,"RA_OF_ASC_NODE":310.9272,"ARG_OF_PERICENTER":68.8307,"MEAN_ANOMALY":291.2994,"EPHEMERIS_TYPE":0,"CLASSIFICATION_TYPE":"U","NORAD_CAT_ID":48236,"ELEMENT_SET_NO":999,"REV_AT_EPOCH":23420,"BSTAR":0.00016985,"MEAN_MOTION_DOT":7.6e-7,"MEAN_MOTION_DDOT":0},{"OBJECT_NAME":"ONEWEB-0194","OBJECT_ID":"2021-031AD","EPOCH":"2026-03-02T17:12:42.815808","MEAN_MOTION":13.14501954,"ECCENTRICITY":0.000148,"INCLINATION":87.9002,"RA_OF_ASC_NODE":310.9485,"ARG_OF_PERICENTER":85.0105,"MEAN_ANOMALY":275.1193,"EPHEMERIS_TYPE":0,"CLASSIFICATION_TYPE":"U","NORAD_CAT_ID":48237,"ELEMENT_SET_NO":999,"REV_AT_EPOCH":23437,"BSTAR":-0.00059376,"MEAN_MOTION_DOT":-2.07e-6,"MEAN_MOTION_DDOT":0},{"OBJECT_NAME":"ONEWEB-0193","OBJECT_ID":"2021-031AE","EPOCH":"2026-03-02T17:35:32.813952","MEAN_MOTION":13.14502399,"ECCENTRICITY":0.0001306,"INCLINATION":87.8999,"RA_OF_ASC_NODE":310.9375,"ARG_OF_PERICENTER":90.2436,"MEAN_ANOMALY":269.8843,"EPHEMERIS_TYPE":0,"CLASSIFICATION_TYPE":"U","NORAD_CAT_ID":48238,"ELEMENT_SET_NO":999,"REV_AT_EPOCH":23432,"BSTAR":6.9057e-5,"MEAN_MOTION_DOT":3.8e-7,"MEAN_MOTION_DDOT":0},{"OBJECT_NAME":"ONEWEB-0191","OBJECT_ID":"2021-031AF","EPOCH":"2026-03-02T17:51:31.990464","MEAN_MOTION":13.14501632,"ECCENTRICITY":0.0001591,"INCLINATION":87.9001,"RA_OF_ASC_NODE":310.9306,"ARG_OF_PERICENTER":78.4625,"MEAN_ANOMALY":281.6683,"EPHEMERIS_TYPE":0,"CLASSIFICATION_TYPE":"U","NORAD_CAT_ID":48239,"ELEMENT_SET_NO":999,"REV_AT_EPOCH":23418,"BSTAR":0.00037431,"MEAN_MOTION_DOT":1.52e-6,"MEAN_MOTION_DDOT":0},{"OBJECT_NAME":"ONEWEB-0195","OBJECT_ID":"2021-031AG","EPOCH":"2026-03-02T17:18:25.296768","MEAN_MOTION":13.14502193,"ECCENTRICITY":0.000202,"INCLINATION":87.9,"RA_OF_ASC_NODE":310.932,"ARG_OF_PERICENTER":85.0623,"MEAN_ANOMALY":275.0737,"EPHEMERIS_TYPE":0,"CLASSIFICATION_TYPE":"U","NORAD_CAT_ID":48240,"ELEMENT_SET_NO":999,"REV_AT_EPOCH":23416,"BSTAR":-0.00054315,"MEAN_MOTION_DOT":-1.89e-6,"MEAN_MOTION_DDOT":0},{"OBJECT_NAME":"ONEWEB-0201","OBJECT_ID":"2021-031AH","EPOCH":"2026-03-02T17:01:29.695872","MEAN_MOTION":13.1450279,"ECCENTRICITY":0.0001896,"INCLINATION":87.8992,"RA_OF_ASC_NODE":310.9635,"ARG_OF_PERICENTER":73.2016,"MEAN_ANOMALY":286.9322,"EPHEMERIS_TYPE":0,"CLASSIFICATION_TYPE":"U","NORAD_CAT_ID":48241,"ELEMENT_SET_NO":999,"REV_AT_EPOCH":23439,"BSTAR":-0.00027717,"MEAN_MOTION_DOT":-9.0e-7,"MEAN_MOTION_DDOT":0},{"OBJECT_NAME":"ONEWEB-0207","OBJECT_ID":"2021-031AJ","EPOCH":"2026-03-02T16:32:46.377888","MEAN_MOTION":13.14502855,"ECCENTRICITY":0.0001784,"INCLINATION":87.9003,"RA_OF_ASC_NODE":310.9387,"ARG_OF_PERICENTER":71.1771,"MEAN_ANOMALY":288.9552,"EPHEMERIS_TYPE":0,"CLASSIFICATION_TYPE":"U","NORAD_CAT_ID":48242,"ELEMENT_SET_NO":999,"REV_AT_EPOCH":23430,"BSTAR":0.00028002,"MEAN_MOTION_DOT":1.17e-6,"MEAN_MOTION_DDOT":0},{"OBJECT_NAME":"ONEWEB-0208","OBJECT_ID":"2021-031AK","EPOCH":"2026-03-02T17:56:05.968320","MEAN_MOTION":13.14501745,"ECCENTRICITY":0.0001899,"INCLINATION":87.8999,"RA_OF_ASC_NODE":310.9398,"ARG_OF_PERICENTER":84.7888,"MEAN_ANOMALY":275.3459,"EPHEMERIS_TYPE":0,"CLASSIFICATION_TYPE":"U","NORAD_CAT_ID":48243,"ELEMENT_SET_NO":999,"REV_AT_EPOCH":23432,"BSTAR":0.00067604,"MEAN_MOTION_DOT":2.63e-6,"MEAN_MOTION_DDOT":0},{"OBJECT_NAME":"ONEWEB-0200","OBJECT_ID":"2021-031AL","EPOCH":"2026-03-02T17:03:34.473024","MEAN_MOTION":13.14501666,"ECCENTRICITY":0.0001794,"INCLINATION":87.9,"RA_OF_ASC_NODE":310.9358,"ARG_OF_PERICENTER":79.8583,"MEAN_ANOMALY":280.2749,"EPHEMERIS_TYPE":0,"CLASSIFICATION_TYPE":"U","NORAD_CAT_ID":48244,"ELEMENT_SET_NO":999,"REV_AT_EPOCH":23424,"BSTAR":-0.00047922,"MEAN_MOTION_DOT":-1.65e-6,"MEAN_MOTION_DDOT":0},{"OBJECT_NAME":"ONEWEB-0217","OBJECT_ID":"2021-031AM","EPOCH":"2026-03-02T17:26:24.972288","MEAN_MOTION":13.14502311,"ECCENTRICITY":0.0001988,"INCLINATION":87.9001,"RA_OF_ASC_NODE":310.9323,"ARG_OF_PERICENTER":85.1164,"MEAN_ANOMALY":275.0192,"EPHEMERIS_TYPE":0,"CLASSIFICATION_TYPE":"U","NORAD_CAT_ID":48245,"ELEMENT_SET_NO":999,"REV_AT_EPOCH":23419,"BSTAR":-0.00013155,"MEAN_MOTION_DOT":-3.6e-7,"MEAN_MOTION_DDOT":0},{"OBJECT_NAME":"ONEWEB-0211","OBJECT_ID":"2021-045A","EPOCH":"2026-03-02T16:28:12.670464","MEAN_MOTION":13.16144122,"ECCENTRICITY":0.0001934,"INCLINATION":87.8951,"RA_OF_ASC_NODE":280.3701,"ARG_OF_PERICENTER":98.457,"MEAN_ANOMALY":261.678,"EPHEMERIS_TYPE":0,"CLASSIFICATION_TYPE":"U","NORAD_CAT_ID":48767,"ELEMENT_SET_NO":999,"REV_AT_EPOCH":23043,"BSTAR":0.00031621,"MEAN_MOTION_DOT":1.33e-6,"MEAN_MOTION_DDOT":0},{"OBJECT_NAME":"ONEWEB-0223","OBJECT_ID":"2021-045B","EPOCH":"2026-03-02T15:17:12.060960","MEAN_MOTION":13.15547275,"ECCENTRICITY":0.0001747,"INCLINATION":87.8957,"RA_OF_ASC_NODE":280.4599,"ARG_OF_PERICENTER":101.9383,"MEAN_ANOMALY":258.1943,"EPHEMERIS_TYPE":0,"CLASSIFICATION_TYPE":"U","NORAD_CAT_ID":48768,"ELEMENT_SET_NO":999,"REV_AT_EPOCH":23039,"BSTAR":-0.00014821,"MEAN_MOTION_DOT":-4.3e-7,"MEAN_MOTION_DDOT":0},{"OBJECT_NAME":"ONEWEB-0230","OBJECT_ID":"2021-045C","EPOCH":"2026-03-02T14:36:07.988256","MEAN_MOTION":13.15547118,"ECCENTRICITY":0.0001478,"INCLINATION":87.8944,"RA_OF_ASC_NODE":280.4891,"ARG_OF_PERICENTER":84.2406,"MEAN_ANOMALY":275.8893,"EPHEMERIS_TYPE":0,"CLASSIFICATION_TYPE":"U","NORAD_CAT_ID":48769,"ELEMENT_SET_NO":999,"REV_AT_EPOCH":23065,"BSTAR":0.00015312,"MEAN_MOTION_DOT":7.0e-7,"MEAN_MOTION_DDOT":0},{"OBJECT_NAME":"ONEWEB-0237","OBJECT_ID":"2021-045D","EPOCH":"2026-03-02T16:09:40.677408","MEAN_MOTION":13.15546786,"ECCENTRICITY":0.0001518,"INCLINATION":87.8945,"RA_OF_ASC_NODE":280.4779,"ARG_OF_PERICENTER":97.5295,"MEAN_ANOMALY":262.6007,"EPHEMERIS_TYPE":0,"CLASSIFICATION_TYPE":"U","NORAD_CAT_ID":48770,"ELEMENT_SET_NO":999,"REV_AT_EPOCH":23038,"BSTAR":0.0004841,"MEAN_MOTION_DOT":1.95e-6,"MEAN_MOTION_DDOT":0},{"OBJECT_NAME":"ONEWEB-0235","OBJECT_ID":"2021-045E","EPOCH":"2026-03-02T15:33:10.250784","MEAN_MOTION":13.15547544,"ECCENTRICITY":0.0001676,"INCLINATION":87.8955,"RA_OF_ASC_NODE":280.4583,"ARG_OF_PERICENTER":104.0932,"MEAN_ANOMALY":256.0385,"EPHEMERIS_TYPE":0,"CLASSIFICATION_TYPE":"U","NORAD_CAT_ID":48771,"ELEMENT_SET_NO":999,"REV_AT_EPOCH":23037,"BSTAR":3.2251e-5,"MEAN_MOTION_DOT":2.5e-7,"MEAN_MOTION_DDOT":0},{"OBJECT_NAME":"ONEWEB-0242","OBJECT_ID":"2021-045F","EPOCH":"2026-03-02T15:24:02.479104","MEAN_MOTION":13.15547374,"ECCENTRICITY":0.0001471,"INCLINATION":87.8953,"RA_OF_ASC_NODE":280.4549,"ARG_OF_PERICENTER":92.8281,"MEAN_ANOMALY":267.3018,"EPHEMERIS_TYPE":0,"CLASSIFICATION_TYPE":"U","NORAD_CAT_ID":48772,"ELEMENT_SET_NO":999,"REV_AT_EPOCH":23041,"BSTAR":-8.8208e-5,"MEAN_MOTION_DOT":-2.0e-7,"MEAN_MOTION_DDOT":0},{"OBJECT_NAME":"ONEWEB-0241","OBJECT_ID":"2021-045G","EPOCH":"2026-03-02T15:05:47.626080","MEAN_MOTION":13.15547179,"ECCENTRICITY":0.0001852,"INCLINATION":87.8948,"RA_OF_ASC_NODE":280.4879,"ARG_OF_PERICENTER":97.7808,"MEAN_ANOMALY":262.3533,"EPHEMERIS_TYPE":0,"CLASSIFICATION_TYPE":"U","NORAD_CAT_ID":48773,"ELEMENT_SET_NO":999,"REV_AT_EPOCH":23032,"BSTAR":-8.1951e-5,"MEAN_MOTION_DOT":-1.8e-7,"MEAN_MOTION_DDOT":0}]
